FLOCK 2K-35             
1 42877U 17042BE  17346.49488309  .00002394  00000-0  72199-4 0  9998
2 42877  96.9946 247.5769 0014391  60.3972 299.8704 15.35115816 22984
